OBJECT_NAME,OBJECT_ID,EPOCH,MEAN_MOTION,ECCENTRICITY,INCLINATION,RA_OF_ASC_NODE,ARG_OF_PERICENTER,MEAN_ANOMALY,EPHEMERIS_TYPE,CLASSIFICATION_TYPE,NORAD_CAT_ID,ELEMENT_SET_NO,REV_AT_EPOCH,BSTAR,MEAN_MOTION_DOT,MEAN_MOTION_DDOT
SHIJIAN-17 (SJ-17),2016-065A,2026-07-01T13:48:27.163296,0.99860678,.0002227,5.7872,72.4348,34.0114,234.6240,0,U,41838,999,3534,0,.13E-5,0
GOES 16,2016-071A,2026-07-01T13:25:56.529984,1.00272069,.00005869,0.3750,85.5261,26.6929,264.1891,0,U,41866,999,3524,0,-.81E-6,0
TIANLIAN 1-04,2016-072A,2026-07-01T10:54:38.617632,1.00274668,.00431006,0.9050,82.8288,90.3938,86.7780,0,U,41869,999,3544,0,.41E-6,0
WGS F8 (USA 272),2016-075A,2026-06-30T23:20:32.710848,1.00253485,.00009397,0.0473,59.7129,252.7991,106.5169,0,U,41879,999,3495,0,0,0
FENGYUN 4A,2016-077A,2026-07-01T14:37:01.870752,1.00276651,.00079205,2.3578,80.1315,157.9896,24.5148,0,U,41882,999,3507,0,-.348E-5,0
ECHOSTAR 19,2016-079A,2026-07-01T13:20:04.486272,1.00271741,.00016772,0.0186,24.4796,76.5653,281.4852,0,U,41893,999,3484,0,-.128E-5,0
JCSAT-110A (JCSAT-15),2016-082A,2026-07-01T05:59:42.999072,1.00269962,.0000864,0.0180,20.2348,89.3498,9.7164,0,U,41903,999,3490,0,-.34E-5,0
STAR ONE D1,2016-082B,2026-07-01T11:55:09.372000,1.00268297,.00021145,0.0393,58.8521,52.5811,262.9396,0,U,41904,999,3491,0,0,0
TJS-2,2017-001A,2026-07-01T12:38:05.254944,1.00272996,.00008385,0.8685,85.1604,53.7420,36.7483,0,U,41911,999,3486,0,.3E-7,0
SBIRS GEO-4 (USA 273),2017-004A,2026-07-01T14:07:47.589600,1.00286733,.00030241,2.2688,43.6440,57.1797,51.8199,0,U,41937,999,3474,0,.135E-5,0
HISPASAT 36W-1,2017-006A,2026-07-01T12:08:45.567744,1.00271348,.00010086,0.0088,311.3662,149.4832,324.9007,0,U,41942,999,3438,0,-.234E-5,0
TELKOM 3S,2017-007A,2026-06-30T07:47:37.516992,1.00271221,.00025186,0.0230,76.9567,24.0057,52.3441,0,U,41944,999,3427,0,-.352E-5,0
INTELSAT 32E (IS-32E),2017-007B,2026-06-29T12:12:28.637856,1.00268307,.0000889,0.0243,13.6582,344.8527,59.0307,0,U,41945,999,3434,0,0,0
ECHOSTAR 23,2017-014A,2026-07-01T13:27:03.447648,1.00271253,.00019259,0.0183,12.3992,86.3227,272.7576,0,U,42070,999,3406,0,-.47E-6,0
WGS F9 (USA 275),2017-016A,2026-07-01T01:59:45.966624,1.00271042,.0000392,0.0253,7.9209,54.5724,234.6115,0,U,42075,999,3403,0,0,0
SES-10,2017-017A,2026-07-01T06:52:03.976032,1.00268999,.00030157,0.0189,40.6498,63.1815,211.6186,0,U,42432,999,3389,0,-.262E-5,0
CHINASAT 16 (SJ-13),2017-018A,2026-07-01T14:33:17.229888,1.00267681,.00039646,0.0937,89.5752,127.0992,31.8026,0,U,42662,999,3389,0,-.341E-5,0
KOREASAT 7,2017-023A,2026-07-01T14:34:47.085888,1.00268011,.00006929,0.0219,331.2725,93.2024,189.7545,0,U,42691,999,3351,0,-.351E-5,0
SGDC,2017-023B,2026-06-30T10:25:27.509088,1.00271873,.00028131,0.0310,68.2420,36.7838,255.0007,0,U,42692,999,3354,0,-.239E-5,0
GSAT-9,2017-024A,2026-07-01T14:29:32.589024,1.00273092,.00021051,0.0532,90.0985,20.9395,123.3170,0,U,42695,999,3344,0,-.276E-5,0
INMARSAT 5-F4,2017-025A,2026-07-01T00:36:35.836992,1.00271349,.00002088,0.0263,35.6434,27.4887,281.6144,0,U,42698,999,3341,0,0,0
SES-15,2017-026A,2026-07-01T08:16:59.342592,1.00271672,.00011513,0.0221,331.7918,169.2992,133.4012,0,U,42709,999,757,0,.7E-6,0
QZS-2 (MICHIBIKI-2),2017-028A,2026-07-01T11:19:35.470848,1.00280245,.07587467,39.4058,242.9433,269.4314,79.2051,0,U,42738,999,776,0,-.11E-5,0
VIASAT-2,2017-029A,2026-06-29T13:47:26.255616,1.00273030,.00005004,0.0183,302.2304,140.7256,331.6830,0,U,42740,999,3332,0,-.254E-5,0
EUTELSAT 172B,2017-029B,2026-07-01T14:12:12.993120,1.00271222,.00003139,0.0235,117.2201,306.8169,240.6642,0,U,42741,999,3388,0,.5E-7,0
GSAT-19,2017-031A,2026-07-01T14:15:24.358752,1.00273071,.00069831,0.0228,46.3469,34.0066,101.0227,0,U,42747,999,3329,0,0,0
ECHOSTAR 21,2017-032A,2026-06-30T12:24:49.023648,1.00274394,.0002581,1.7698,356.5504,95.1200,23.4050,0,U,42749,999,3323,0,.78E-6,0
BULGARIASAT-1,2017-038A,2026-07-01T03:46:17.666688,1.00270774,.00030023,0.0390,75.2313,30.0580,232.3893,0,U,42801,999,3298,0,.21E-6,0
HELLAS-SAT 3,2017-040A,2026-07-01T14:12:54.599040,1.00271718,.00041334,0.0487,46.1443,17.3828,108.3353,0,U,42814,999,3295,0,.163E-5,0
GSAT-17,2017-040B,2026-07-01T14:28:25.197024,1.00270933,.00013714,0.0395,86.8672,194.8216,308.5735,0,U,42815,999,3293,0,-.247E-5,0
INTELSAT 35E (IS-35E),2017-041A,2026-07-01T10:21:59.912352,1.00267116,.00023085,0.0222,29.9673,70.2432,300.2682,0,U,42818,999,3295,0,0,0
COSMOS 2520,2017-046A,2026-07-01T03:58:38.982144,1.00272335,.00004904,0.0409,104.2047,40.5856,239.0765,0,U,42907,999,3253,0,.147E-5,0
