SHIJIAN-17 (SJ-17)      
1 41838U 16065A   26182.57531439  .00000130  00000+0  00000+0 0  9990
2 41838   5.7872  72.4348 0002227  34.0114 234.6240  0.99860678 35348
GOES 16                 
1 41866U 16071A   26182.55968206 -.00000081  00000+0  00000+0 0  9998
2 41866   0.3750  85.5261 0000586  26.6929 264.1891  1.00272069 35244
TIANLIAN 1-04           
1 41869U 16072A   26182.45461363  .00000041  00000+0  00000+0 0  9998
2 41869   0.9050  82.8288 0043100  90.3938  86.7780  1.00274668 35446
WGS F8 (USA 272)        
1 41879U 16075A   26181.97260082  .00000000  00000+0  00000+0 0  9998
2 41879   0.0473  59.7129 0000939 252.7991 106.5169  1.00253485 34951
FENGYUN 4A              
1 41882U 16077A   26182.60904943 -.00000348  00000+0  00000+0 0  9992
2 41882   2.3578  80.1315 0007920 157.9896  24.5148  1.00276651 35078
ECHOSTAR 19             
1 41893U 16079A   26182.55560748 -.00000128  00000+0  00000+0 0  9997
2 41893   0.0186  24.4796 0001677  76.5653 281.4852  1.00271741 34849
JCSAT-110A (JCSAT-15)   
1 41903U 16082A   26182.24980323 -.00000340  00000+0  00000+0 0  9990
2 41903   0.0180  20.2348 0000864  89.3498   9.7164  1.00269962 34904
STAR ONE D1             
1 41904U 16082B   26182.49663625  .00000000  00000+0  00000+0 0  9993
2 41904   0.0393  58.8521 0002114  52.5811 262.9396  1.00268297 34913
TJS-2                   
1 41911U 17001A   26182.52644971  .00000003  00000+0  00000+0 0  9993
2 41911   0.8685  85.1604 0000838  53.7420  36.7483  1.00272996 34867
SBIRS GEO-4 (USA 273)   
1 41937U 17004A   26182.58874525  .00000135  00000+0  00000+0 0  9996
2 41937   2.2688  43.6440 0003024  57.1797  51.8199  1.00286733 34749
HISPASAT 36W-1          
1 41942U 17006A   26182.50608296 -.00000234  00000+0  00000+0 0  9997
2 41942   0.0088 311.3662 0001008 149.4832 324.9007  1.00271348 34389
TELKOM 3S               
1 41944U 17007A   26181.32473978 -.00000352  00000+0  00000+0 0  9997
2 41944   0.0230  76.9567 0002518  24.0057  52.3441  1.00271221 34274
INTELSAT 32E (IS-32E)   
1 41945U 17007B   26180.50866479  .00000000  00000+0  00000+0 0  9998
2 41945   0.0243  13.6582 0000889 344.8527  59.0307  1.00268307 34342
ECHOSTAR 23             
1 42070U 17014A   26182.56045657 -.00000047  00000+0  00000+0 0  9993
2 42070   0.0183  12.3992 0001925  86.3227 272.7576  1.00271253 34068
WGS F9 (USA 275)        
1 42075U 17016A   26182.08317091  .00000000  00000+0  00000+0 0  9999
2 42075   0.0253   7.9209 0000392  54.5724 234.6115  1.00271042 34037
SES-10                  
1 42432U 17017A   26182.28615713 -.00000262  00000+0  00000+0 0  9992
2 42432   0.0189  40.6498 0003015  63.1815 211.6186  1.00268999 33891
CHINASAT 16 (SJ-13)     
1 42662U 17018A   26182.60644942 -.00000341  00000+0  00000+0 0  9998
2 42662   0.0937  89.5752 0003964 127.0992  31.8026  1.00267681 33893
KOREASAT 7              
1 42691U 17023A   26182.60748942 -.00000351  00000+0  00000+0 0  9992
2 42691   0.0219 331.2725 0000692  93.2024 189.7545  1.00268011 33516
SGDC                    
1 42692U 17023B   26181.43434617 -.00000239  00000+0  00000+0 0  9999
2 42692   0.0310  68.2420 0002813  36.7838 255.0007  1.00271873 33543
GSAT-9                  
1 42695U 17024A   26182.60384941 -.00000276  00000+0  00000+0 0  9998
2 42695   0.0532  90.0985 0002105  20.9395 123.3170  1.00273092 33440
INMARSAT 5-F4           
1 42698U 17025A   26182.02541478  .00000000  00000+0  00000+0 0  9992
2 42698   0.0263  35.6434 0000208  27.4887 281.6144  1.00271349 33417
SES-15                  
1 42709U 17026A   26182.34513128  .00000070  00000+0  00000+0 0  9999
2 42709   0.0221 331.7918 0001151 169.2992 133.4012  1.00271672  7576
QZS-2 (MICHIBIKI-2)     
1 42738U 17028A   26182.47193832 -.00000110  00000+0  00000+0 0  9999
2 42738  39.4058 242.9433 0758746 269.4314  79.2051  1.00280245  7764
VIASAT-2                
1 42740U 17029A   26180.57460944 -.00000254  00000+0  00000+0 0  9992
2 42740   0.0183 302.2304 0000500 140.7256 331.6830  1.00273030 33326
EUTELSAT 172B           
1 42741U 17029B   26182.59181705  .00000005  00000+0  00000+0 0  9995
2 42741   0.0235 117.2201 0000313 306.8169 240.6642  1.00271222 33887
GSAT-19                 
1 42747U 17031A   26182.59403193  .00000000  00000+0  00000+0 0  9997
2 42747   0.0228  46.3469 0006983  34.0066 101.0227  1.00273071 33296
ECHOSTAR 21             
1 42749U 17032A   26181.51723407  .00000078  00000+0  00000+0 0  9999
2 42749   1.7698 356.5504 0002581  95.1200  23.4050  1.00274394 33235
BULGARIASAT-1           
1 42801U 17038A   26182.15714892  .00000021  00000+0  00000+0 0  9991
2 42801   0.0390  75.2313 0003002  30.0580 232.3893  1.00270774 32981
HELLAS-SAT 3            
1 42814U 17040A   26182.59229860  .00000163  00000+0  00000+0 0  9999
2 42814   0.0487  46.1443 0004133  17.3828 108.3353  1.00271718 32951
GSAT-17                 
1 42815U 17040B   26182.60306941 -.00000247  00000+0  00000+0 0  9992
2 42815   0.0395  86.8672 0001371 194.8216 308.5735  1.00270933 32932
INTELSAT 35E (IS-35E)   
1 42818U 17041A   26182.43194343  .00000000  00000+0  00000+0 0  9994
2 42818   0.0222  29.9673 0002308  70.2432 300.2682  1.00267116 32952
COSMOS 2520             
1 42907U 17046A   26182.16572896  .00000147  00000+0  00000+0 0  9993
2 42907   0.0409 104.2047 0000490  40.5856 239.0765  1.00272335 32534
